[{"OBJECT_NAME":"MAKERSAT 0","OBJECT_ID":"2017-073D","EPOCH":"2026-03-09T15:16:53.554944","MEAN_MOTION":15.27797199,"ECCENTRICITY":0.0115258,"INCLINATION":97.4777,"RA_OF_ASC_NODE":310.6155,"ARG_OF_PERICENTER":266.0743,"MEAN_ANOMALY":92.7313,"EPHEMERIS_TYPE":0,"CLASSIFICATION_TYPE":"U","NORAD_CAT_ID":43016,"ELEMENT_SET_NO":999,"REV_AT_EPOCH":45124,"BSTAR":0.0007159,"MEAN_MOTION_DOT":0.00023659,"MEAN_MOTION_DDOT":0},{"OBJECT_NAME":"STARLINK-1704","OBJECT_ID":"2021-012F","EPOCH":"2026-03-09T08:31:59.662560","MEAN_MOTION":15.43808127,"ECCENTRICITY":0.00011238,"INCLINATION":53.0526,"RA_OF_ASC_NODE":64.3372,"ARG_OF_PERICENTER":164.7307,"MEAN_ANOMALY":195.3732,"EPHEMERIS_TYPE":0,"CLASSIFICATION_TYPE":"U","NORAD_CAT_ID":47625,"ELEMENT_SET_NO":999,"REV_AT_EPOCH":28005,"BSTAR":0.0010933867,"MEAN_MOTION_DOT":0.00050206,"MEAN_MOTION_DDOT":0}]
