MAKERSAT 0              
1 43016U 17073D   26068.63673096  .00023659  00000+0  71590-3 0  9993
2 43016  97.4777 310.6155 0115258 266.0743  92.7313 15.27797199451246
STARLINK-1704           
1 47625U 21012F   26068.35555165  .00050206  00000+0  10934-2 0  9998
2 47625  53.0526  64.3372 0001123 164.7307 195.3732 15.43808127280051
